[{"OBJECT_NAME":"STARLINK-33690","OBJECT_ID":"2025-065H","EPOCH":"2026-03-09T09:56:58.059168","MEAN_MOTION":15.27613266,"ECCENTRICITY":0.00042388,"INCLINATION":43.0027,"RA_OF_ASC_NODE":104.679,"ARG_OF_PERICENTER":255.1959,"MEAN_ANOMALY":104.8424,"EPHEMERIS_TYPE":0,"CLASSIFICATION_TYPE":"U","NORAD_CAT_ID":63406,"ELEMENT_SET_NO":999,"REV_AT_EPOCH":5284,"BSTAR":0.0012608006,"MEAN_MOTION_DOT":0.00034637,"MEAN_MOTION_DDOT":0},{"OBJECT_NAME":"HERMES-4","OBJECT_ID":"2025-052BP","EPOCH":"2026-03-09T22:05:58.629408","MEAN_MOTION":15.26796135,"ECCENTRICITY":0.00026523,"INCLINATION":97.4,"RA_OF_ASC_NODE":323.461,"ARG_OF_PERICENTER":154.9526,"MEAN_ANOMALY":205.1842,"EPHEMERIS_TYPE":0,"CLASSIFICATION_TYPE":"U","NORAD_CAT_ID":63833,"ELEMENT_SET_NO":999,"REV_AT_EPOCH":5478,"BSTAR":0.00081237216,"MEAN_MOTION_DOT":0.00021364,"MEAN_MOTION_DDOT":0}]
